{"type":"FeatureCollection","features":[{"type":"Feature","properties":{"buffer_km":2.0,"note":"nearby band: within buffer_km of the municipality"},"geometry":{"type":"Polygon","coordinates":[[[17.86039,44.66655],[17.86122,44.67276],[17.86162,44.67447],[17.86266,44.67696],[17.86419,44.67933],[17.86655,44.68185],[17.86926,44.68401],[17.87249,44.68701],[17.87845,44.69184],[17.88203,44.69597],[17.88628,44.70053],[17.88829,44.70215],[17.8909,44.70376],[17.89175,44.70692],[17.89288,44.70944],[17.89452,44.71182],[17.89663,44.714],[17.89916,44.71593],[17.90258,44.71783],[17.90536,44.71997],[17.90889,44.7219],[17.91103,44.72352],[17.91393,44.72518],[17.91714,44.72651],[17.92043,44.72746],[17.92368,44.72884],[17.92685,44.72978],[17.93078,44.7312],[17.93329,44.73189],[17.93739,44.7326],[17.9416,44.73281],[17.94612,44.73251],[17.95054,44.73172],[17.95454,44.73049],[17.95793,44.72894],[17.96078,44.72717],[17.96335,44.72502],[17.96472,44.72361],[17.9659,44.72211],[17.96732,44.71985],[17.9681,44.71815],[17.96886,44.71515],[17.96978,44.71269],[17.97026,44.71035],[17.972,44.70613],[17.97241,44.70396],[17.97244,44.70155],[17.9734,44.69985],[17.97467,44.69693],[17.97512,44.69518],[17.97534,44.69321],[17.97868,44.69463],[17.98088,44.69537],[17.98375,44.69608],[17.98612,44.69646],[17.98897,44.69677],[17.99217,44.69685],[17.99567,44.69669],[17.99885,44.69625],[17.99967,44.69797],[18.00071,44.69962],[18.00388,44.70361],[18.00634,44.70606],[18.00889,44.70792],[18.01189,44.70961],[18.01687,44.71185],[18.01964,44.71274],[18.0229,44.71345],[18.02555,44.71437],[18.02799,44.71501],[18.03131,44.71568],[18.03489,44.71605],[18.03836,44.71611],[18.04226,44.71586],[18.04571,44.71532],[18.04916,44.7144],[18.05239,44.71314],[18.05487,44.71184],[18.05791,44.70968],[18.06168,44.70619],[18.06358,44.70392],[18.06479,44.7019],[18.06565,44.69978],[18.06614,44.6976],[18.06625,44.6954],[18.06602,44.6934],[18.06651,44.6916],[18.06789,44.68911],[18.06947,44.68503],[18.07013,44.6821],[18.07289,44.68208],[18.07596,44.68179],[18.07896,44.68124],[18.08184,44.68043],[18.08865,44.67783],[18.0907,44.67692],[18.09308,44.67559],[18.0971,44.67287],[18.10038,44.67011],[18.10261,44.66749],[18.10417,44.66464],[18.10502,44.66244],[18.10543,44.66072],[18.10859,44.65902],[18.11119,44.65721],[18.1134,44.65515],[18.11546,44.65259],[18.11672,44.65059],[18.11748,44.64891],[18.1181,44.64676],[18.11835,44.64456],[18.1181,44.64068],[18.11722,44.63774],[18.11642,44.63612],[18.11471,44.63333],[18.11261,44.63072],[18.11076,44.62903],[18.10802,44.62702],[18.10613,44.62588],[18.10395,44.62481],[18.10096,44.6229],[18.09898,44.62192],[18.09637,44.62088],[18.09286,44.61903],[18.08893,44.61763],[18.08621,44.61438],[18.08483,44.61298],[18.08386,44.61078],[18.08294,44.60918],[18.0818,44.60764],[18.08032,44.60605],[18.08061,44.60371],[18.08049,44.60101],[18.07931,44.59641],[18.07849,44.59432],[18.07759,44.59271],[18.07649,44.59121],[18.07567,44.58931],[18.07471,44.5877],[18.0732,44.58578],[18.07133,44.58396],[18.07058,44.58244],[18.06949,44.58072],[18.06722,44.57803],[18.06897,44.5744],[18.06977,44.57166],[18.07032,44.56796],[18.07007,44.56482],[18.06887,44.56123],[18.0675,44.55849],[18.06674,44.55609],[18.06594,44.55437],[18.06391,44.55127],[18.06143,44.54871],[18.05908,44.54677],[18.05681,44.54528],[18.0543,44.544],[18.05114,44.5428],[18.04852,44.54106],[18.04598,44.53978],[18.0438,44.53892],[18.04094,44.53806],[18.03378,44.53678],[18.03011,44.53641],[18.02592,44.53646],[18.02259,44.53616],[18.01959,44.53608],[18.01718,44.53621],[18.01481,44.5365],[18.01163,44.53713],[18.00968,44.53764],[18.00435,44.53688],[18.00068,44.53665],[17.99761,44.53676],[17.99421,44.53721],[17.99016,44.53737],[17.98595,44.53738],[17.98294,44.53766],[17.98058,44.53808],[17.97828,44.53866],[17.97573,44.53952],[17.97315,44.53944],[17.96972,44.53957],[17.96552,44.54],[17.96164,44.54074],[17.95717,44.54194],[17.9544,44.54299],[17.95059,44.54499],[17.94716,44.54643],[17.94514,44.54755],[17.943,44.54903],[17.94036,44.54986],[17.9382,44.55075],[17.93501,44.55249],[17.92954,44.555],[17.92758,44.55605],[17.92578,44.55723],[17.92376,44.55888],[17.92204,44.56068],[17.92064,44.56263],[17.9194,44.5651],[17.91579,44.57565],[17.91385,44.57675],[17.91205,44.57796],[17.90934,44.58036],[17.90806,44.58186],[17.90073,44.59153],[17.89348,44.59635],[17.88246,44.6047],[17.88024,44.6067],[17.87818,44.60929],[17.86793,44.6252],[17.86706,44.62687],[17.86558,44.63053],[17.86092,44.64429],[17.86045,44.64604],[17.86022,44.64782],[17.85983,44.66072],[17.86039,44.66655]],[[17.8853,44.65289],[17.8854,44.64857],[17.88995,44.63511],[17.89109,44.63229],[17.90104,44.61685],[17.91163,44.60883],[17.91412,44.60728],[17.921,44.60256],[17.9302,44.59043],[17.93769,44.5863],[17.93846,44.5849],[17.94367,44.56989],[17.94906,44.56745],[17.95181,44.56589],[17.95236,44.56651],[17.95229,44.56608],[17.95281,44.56598],[17.95298,44.56605],[17.95313,44.56638],[17.95249,44.56664],[17.95259,44.5668],[17.95308,44.56697],[17.95328,44.56722],[17.95576,44.56849],[17.95597,44.569],[17.95513,44.56983],[17.95504,44.57022],[17.95999,44.56535],[17.96001,44.56285],[17.96089,44.56169],[17.96155,44.56119],[17.9625,44.56086],[17.96319,44.56086],[17.9656,44.56035],[17.96607,44.56003],[17.96682,44.55874],[17.96755,44.55833],[17.97122,44.55753],[17.97339,44.55744],[17.97488,44.55812],[17.97758,44.55841],[17.97857,44.55923],[17.97955,44.55963],[17.98098,44.56129],[17.98178,44.56166],[17.98252,44.5624],[17.98266,44.56293],[17.98255,44.56367],[17.98312,44.56465],[17.98575,44.56129],[17.98631,44.55941],[17.98639,44.55799],[17.98617,44.55708],[17.98625,44.55634],[17.98668,44.55616],[17.98709,44.55566],[17.98777,44.55532],[17.98854,44.55532],[17.99016,44.55623],[17.99089,44.55631],[17.99148,44.55616],[17.99358,44.55519],[17.99689,44.55613],[17.9978,44.55615],[17.99853,44.55595],[17.99914,44.55537],[18.00002,44.55476],[18.00039,44.55465],[18.0016,44.5551],[18.00226,44.55511],[18.00281,44.55538],[18.00419,44.55519],[18.00447,44.55536],[18.00527,44.55544],[18.00758,44.55621],[18.01064,44.5563],[18.01138,44.55612],[18.01241,44.55629],[18.01299,44.55624],[18.01345,44.55604],[18.01366,44.55556],[18.01481,44.55525],[18.01666,44.55543],[18.01887,44.5546],[18.01937,44.55425],[18.0202,44.55407],[18.02263,44.55431],[18.02392,44.55502],[18.0248,44.55502],[18.02518,44.55473],[18.0261,44.5546],[18.02766,44.55471],[18.02848,44.55436],[18.03022,44.55471],[18.03064,44.55491],[18.03274,44.55508],[18.03295,44.55699],[18.03498,44.5591],[18.03628,44.5594],[18.03713,44.55942],[18.03776,44.55967],[18.04097,44.55926],[18.04206,44.56019],[18.04247,44.56086],[18.04281,44.56196],[18.0429,44.563],[18.04319,44.5636],[18.04348,44.56506],[18.04388,44.5656],[18.04457,44.56589],[18.04483,44.56686],[18.04517,44.56744],[18.04477,44.56946],[18.04334,44.57226],[18.04267,44.57306],[18.04068,44.5741],[18.03932,44.57634],[18.0392,44.57676],[18.03937,44.57724],[18.03861,44.57834],[18.03859,44.57869],[18.03929,44.58113],[18.03834,44.58221],[18.03895,44.58379],[18.03982,44.58451],[18.04167,44.58568],[18.04351,44.58635],[18.04429,44.58644],[18.04468,44.58698],[18.04562,44.58741],[18.04693,44.58871],[18.04722,44.58914],[18.04719,44.58954],[18.04622,44.59058],[18.04612,44.59142],[18.04574,44.59193],[18.04583,44.59223],[18.04689,44.59242],[18.0471,44.59262],[18.04731,44.59328],[18.04809,44.59382],[18.04873,44.59398],[18.04897,44.5938],[18.04946,44.59373],[18.04985,44.5945],[18.05028,44.59479],[18.05081,44.59493],[18.05133,44.59492],[18.05144,44.59514],[18.05204,44.59553],[18.05213,44.59575],[18.05156,44.5963],[18.0519,44.59682],[18.05153,44.59747],[18.05152,44.59791],[18.05184,44.59892],[18.05249,44.59931],[18.05407,44.59974],[18.0547,44.60022],[18.05503,44.60218],[18.05544,44.60281],[18.05544,44.60326],[18.05494,44.60417],[18.05365,44.60472],[18.053,44.60545],[18.0528,44.60599],[18.05293,44.60735],[18.05277,44.60766],[18.05277,44.6084],[18.05256,44.609],[18.05219,44.60947],[18.05219,44.60979],[18.05181,44.61028],[18.05165,44.61112],[18.05181,44.61139],[18.05247,44.61191],[18.05421,44.6139],[18.05463,44.61408],[18.0565,44.61415],[18.05797,44.61456],[18.05926,44.61621],[18.06013,44.61682],[18.06101,44.61881],[18.06062,44.62023],[18.06065,44.62085],[18.0609,44.6214],[18.06175,44.62228],[18.06284,44.62251],[18.06329,44.62297],[18.06393,44.62318],[18.06492,44.624],[18.06523,44.62455],[18.06885,44.62862],[18.07027,44.6312],[18.07172,44.63199],[18.07756,44.63464],[18.0797,44.63437],[18.08277,44.63629],[18.08278,44.63667],[18.08297,44.63684],[18.08341,44.63698],[18.08428,44.63682],[18.085,44.63693],[18.08567,44.6372],[18.08746,44.63879],[18.08818,44.63914],[18.08896,44.64012],[18.09008,44.64063],[18.09083,44.64018],[18.09187,44.64094],[18.0931,44.64294],[18.09315,44.64422],[18.09232,44.64528],[18.09083,44.64606],[18.08914,44.64643],[18.08161,44.64685],[18.08005,44.6471],[18.07912,44.64749],[18.07805,44.64925],[18.07794,44.65041],[18.07842,44.6526],[18.0804,44.65858],[18.08001,44.65952],[18.07865,44.66061],[18.07638,44.66212],[18.07117,44.66413],[18.07015,44.66367],[18.07016,44.66356],[18.07063,44.66358],[18.07045,44.66331],[18.06955,44.66332],[18.06918,44.66291],[18.06895,44.66286],[18.06836,44.66193],[18.06811,44.66188],[18.06776,44.66114],[18.06656,44.66045],[18.06554,44.66013],[18.06388,44.65987],[18.06244,44.65843],[18.06202,44.65844],[18.06074,44.658],[18.05954,44.65783],[18.05908,44.65831],[18.05801,44.65835],[18.05741,44.65853],[18.05741,44.65883],[18.05712,44.65917],[18.05576,44.6591],[18.05557,44.65898],[18.05497,44.6591],[18.05461,44.65869],[18.0548,44.65846],[18.05413,44.65828],[18.05388,44.6579],[18.05304,44.65752],[18.05235,44.65676],[18.05178,44.65637],[18.05156,44.65626],[18.05042,44.65621],[18.05012,44.65604],[18.04957,44.65539],[18.04925,44.65475],[18.04857,44.65418],[18.04496,44.65343],[18.0436,44.65301],[18.0451,44.65464],[18.04524,44.65561],[18.04493,44.65654],[18.04431,44.65765],[18.04334,44.65838],[18.04235,44.65881],[18.04233,44.6591],[18.04183,44.65967],[18.04167,44.66024],[18.04182,44.66177],[18.0417,44.66251],[18.04208,44.66339],[18.04323,44.66408],[18.04388,44.66554],[18.04491,44.6665],[18.04522,44.66801],[18.04558,44.66859],[18.04581,44.66967],[18.04625,44.67009],[18.04618,44.67056],[18.04638,44.67184],[18.04686,44.67257],[18.04665,44.67321],[18.04666,44.67377],[18.04639,44.67444],[18.046,44.67506],[18.04504,44.67568],[18.04431,44.67745],[18.04418,44.67936],[18.04489,44.68033],[18.04499,44.68071],[18.04451,44.68083],[18.04416,44.6811],[18.04417,44.68137],[18.04351,44.68298],[18.0438,44.68378],[18.04266,44.68514],[18.04246,44.68612],[18.04108,44.68822],[18.0409,44.6887],[18.04155,44.68903],[18.04142,44.68933],[18.04078,44.68982],[18.04046,44.69103],[18.0398,44.69076],[18.03854,44.69185],[18.03865,44.69202],[18.03756,44.69296],[18.03712,44.69355],[18.03753,44.69388],[18.0374,44.69401],[18.04103,44.69585],[18.04025,44.69636],[18.0387,44.69693],[18.03867,44.69804],[18.03677,44.69811],[18.03529,44.69777],[18.03178,44.69648],[18.02856,44.69591],[18.02765,44.69534],[18.02562,44.69445],[18.02334,44.69167],[18.023,44.69104],[18.02299,44.69031],[18.02516,44.68865],[18.02588,44.6871],[18.02584,44.68677],[18.02515,44.68608],[18.02458,44.68302],[18.02368,44.6812],[18.02289,44.68013],[18.02374,44.67968],[18.0241,44.67928],[18.02043,44.67815],[18.01713,44.67671],[18.01601,44.67608],[18.01353,44.67403],[18.01341,44.67468],[18.01315,44.67474],[18.01226,44.67549],[18.01119,44.67529],[18.011,44.67509],[18.01092,44.67486],[18.01119,44.67462],[18.01292,44.67387],[18.01283,44.67373],[18.01328,44.67384],[18.01239,44.6733],[18.01063,44.67258],[18.01054,44.67189],[18.01084,44.6718],[18.01127,44.67228],[18.01182,44.67238],[18.01187,44.67228],[18.01227,44.67231],[18.01254,44.67248],[18.01315,44.67241],[18.0134,44.67237],[18.01344,44.67205],[18.01378,44.67178],[18.01558,44.67115],[18.01613,44.67111],[18.0164,44.67119],[18.0176,44.67217],[18.01814,44.67232],[18.01859,44.67212],[18.01978,44.67021],[18.01982,44.66983],[18.01953,44.66869],[18.01867,44.66739],[18.01791,44.66663],[18.01798,44.66609],[18.01836,44.66548],[18.01812,44.66466],[18.01721,44.66402],[18.01683,44.6633],[18.01594,44.66284],[18.01558,44.66243],[18.01547,44.66198],[18.01587,44.66152],[18.01676,44.66116],[18.017,44.66077],[18.01692,44.66049],[18.01626,44.66],[18.01639,44.65945],[18.0168,44.65901],[18.01695,44.65862],[18.01631,44.6575],[18.01618,44.65699],[18.01643,44.65428],[18.01622,44.65442],[18.01518,44.65422],[18.01431,44.65448],[18.01309,44.65399],[18.01211,44.65318],[18.01086,44.65237],[18.01009,44.65205],[18.00952,44.65074],[18.00912,44.65035],[18.00846,44.65001],[18.00743,44.64964],[18.00746,44.65019],[18.00798,44.65094],[18.00703,44.65202],[18.0067,44.65216],[18.00594,44.65184],[18.00495,44.65181],[18.00476,44.65196],[18.00366,44.65048],[18.00292,44.64994],[18.00163,44.6497],[18.00124,44.64948],[18.00111,44.64969],[17.99982,44.65043],[17.99915,44.65103],[17.99849,44.6513],[17.99899,44.6517],[17.999,44.6519],[17.99871,44.65176],[17.99899,44.65277],[17.99962,44.65282],[18.00001,44.65427],[18.00089,44.65504],[18.00239,44.65602],[18.00265,44.65654],[18.00239,44.65668],[18.00202,44.65656],[17.99946,44.65775],[17.99975,44.65809],[17.99921,44.65862],[17.99957,44.65897],[17.99938,44.65952],[17.9989,44.65971],[17.9987,44.65997],[17.9982,44.65975],[17.99689,44.66133],[17.99678,44.66171],[17.99577,44.66212],[17.9956,44.66234],[17.9959,44.66345],[17.99584,44.66378],[17.99458,44.66524],[17.99466,44.66565],[17.99488,44.66584],[17.99488,44.66658],[17.99507,44.66665],[17.99551,44.66778],[17.99551,44.66824],[17.99521,44.66903],[17.99462,44.6692],[17.99384,44.67054],[17.9946,44.67089],[17.99369,44.67175],[17.99327,44.67193],[17.99418,44.67296],[17.99414,44.67327],[17.99464,44.67374],[17.99481,44.67435],[17.9953,44.67435],[17.99661,44.67468],[17.99536,44.67539],[17.99353,44.67846],[17.99291,44.67876],[17.99148,44.67887],[17.99053,44.67875],[17.98878,44.67797],[17.98843,44.67747],[17.98839,44.67687],[17.98903,44.67528],[17.98894,44.6748],[17.98837,44.67449],[17.98791,44.67443],[17.98687,44.67474],[17.98614,44.67545],[17.98561,44.67565],[17.98442,44.67567],[17.98371,44.67554],[17.98336,44.67532],[17.98289,44.6739],[17.98232,44.67299],[17.98148,44.67056],[17.98104,44.66998],[17.97923,44.6688],[17.97839,44.66862],[17.977,44.6687],[17.97613,44.66924],[17.97533,44.67021],[17.97462,44.6705],[17.97259,44.67057],[17.97153,44.67045],[17.96928,44.66993],[17.96854,44.66963],[17.96793,44.66914],[17.9671,44.66945],[17.96667,44.66947],[17.96614,44.66943],[17.96569,44.66924],[17.96532,44.66906],[17.965,44.66851],[17.96455,44.66832],[17.96457,44.66804],[17.96361,44.66763],[17.96367,44.66729],[17.9633,44.66694],[17.96317,44.66651],[17.9605,44.66575],[17.96012,44.66534],[17.95976,44.66528],[17.9595,44.66539],[17.95874,44.66612],[17.95844,44.66615],[17.95822,44.66638],[17.95758,44.66648],[17.95723,44.66638],[17.95644,44.66576],[17.95676,44.66498],[17.95518,44.66448],[17.95418,44.66601],[17.9542,44.66637],[17.95299,44.66696],[17.95288,44.66724],[17.95226,44.66779],[17.95186,44.66854],[17.95161,44.66854],[17.95128,44.66878],[17.9505,44.66957],[17.95044,44.66978],[17.95005,44.66999],[17.95017,44.67168],[17.94957,44.67244],[17.94938,44.67298],[17.94962,44.6735],[17.94952,44.67364],[17.94972,44.67383],[17.94796,44.67518],[17.94772,44.67556],[17.94786,44.67595],[17.94783,44.67654],[17.94801,44.67657],[17.94825,44.67698],[17.94818,44.67711],[17.94844,44.67736],[17.94832,44.67772],[17.9485,44.67828],[17.94861,44.6784],[17.9495,44.67848],[17.94941,44.6786],[17.94911,44.67857],[17.94909,44.67906],[17.94947,44.67912],[17.94947,44.67925],[17.94932,44.6793],[17.94938,44.6795],[17.94926,44.67956],[17.94914,44.67945],[17.94908,44.67953],[17.9495,44.67985],[17.94924,44.68001],[17.94939,44.68018],[17.9488,44.68029],[17.94889,44.68067],[17.94909,44.68074],[17.94878,44.68102],[17.94909,44.68138],[17.94899,44.68177],[17.94938,44.68224],[17.94899,44.68297],[17.94881,44.68302],[17.94892,44.68316],[17.94867,44.68328],[17.94865,44.68361],[17.9483,44.68424],[17.9491,44.68527],[17.94876,44.68545],[17.94862,44.6853],[17.9485,44.68535],[17.9484,44.68542],[17.94859,44.68559],[17.94814,44.68549],[17.94763,44.68566],[17.94762,44.68593],[17.94811,44.68589],[17.94775,44.68607],[17.94809,44.68628],[17.9478,44.68645],[17.94799,44.68663],[17.94816,44.68659],[17.94827,44.68669],[17.94828,44.68692],[17.94762,44.68743],[17.94797,44.68774],[17.94802,44.68825],[17.94822,44.68836],[17.94812,44.68842],[17.94846,44.68867],[17.94808,44.68943],[17.94824,44.68963],[17.94817,44.68982],[17.94924,44.69065],[17.94957,44.69072],[17.94987,44.69204],[17.94971,44.69231],[17.95006,44.69232],[17.95012,44.69279],[17.94969,44.69289],[17.94956,44.69398],[17.94871,44.69467],[17.94864,44.69491],[17.94824,44.69506],[17.94771,44.69573],[17.9476,44.69626],[17.94734,44.69671],[17.94692,44.69708],[17.94671,44.69778],[17.94639,44.69783],[17.94555,44.69917],[17.94505,44.69942],[17.94501,44.69962],[17.94525,44.69957],[17.94563,44.70005],[17.94539,44.70007],[17.94569,44.70055],[17.94584,44.70045],[17.94594,44.70122],[17.94575,44.70161],[17.94627,44.70192],[17.94628,44.70206],[17.9469,44.70215],[17.94725,44.70262],[17.94662,44.70331],[17.94662,44.70381],[17.94611,44.70404],[17.94602,44.7042],[17.94622,44.70433],[17.94608,44.70448],[17.94611,44.70481],[17.94585,44.70498],[17.94613,44.7051],[17.94604,44.70527],[17.94567,44.70575],[17.9455,44.70572],[17.94515,44.70591],[17.9446,44.707],[17.94509,44.70729],[17.94498,44.70813],[17.94512,44.70887],[17.945,44.7093],[17.9439,44.71064],[17.94375,44.71343],[17.94332,44.71408],[17.94279,44.71455],[17.94159,44.71481],[17.94127,44.71482],[17.93993,44.71439],[17.93977,44.71402],[17.93906,44.71351],[17.93749,44.71293],[17.93492,44.71274],[17.93535,44.7108],[17.93511,44.71071],[17.93333,44.7106],[17.93117,44.71029],[17.92824,44.71036],[17.92794,44.7096],[17.92849,44.70927],[17.92848,44.70911],[17.92803,44.70869],[17.9277,44.70758],[17.92748,44.70755],[17.92737,44.70734],[17.92721,44.70541],[17.92596,44.70562],[17.92578,44.70549],[17.92537,44.70552],[17.924,44.70596],[17.92391,44.70616],[17.92332,44.70638],[17.92293,44.70673],[17.92242,44.70671],[17.9231,44.70599],[17.92352,44.705],[17.92356,44.70451],[17.92382,44.70419],[17.92353,44.70364],[17.92264,44.703],[17.92215,44.70279],[17.9213,44.70274],[17.92076,44.70281],[17.92004,44.70311],[17.91802,44.70184],[17.91629,44.70272],[17.91606,44.70121],[17.91528,44.69912],[17.91521,44.69803],[17.91472,44.69566],[17.91431,44.69398],[17.91406,44.69355],[17.91259,44.69274],[17.91105,44.69206],[17.9105,44.69156],[17.90889,44.69093],[17.90609,44.6894],[17.89852,44.6809],[17.89345,44.67668],[17.89239,44.67558],[17.89159,44.67526],[17.89122,44.67478],[17.88851,44.67238],[17.88626,44.67062],[17.88504,44.66069],[17.8853,44.65289]]]}}]}